SZ-13 MODULE            
1 52260U 21092C   22137.12519718  .00032157  00000+0  30507-3 0  9993
2 52260  41.4820  46.5543 0011183 261.6139  98.3434 15.66137050  4486
STARLINK-3810           
1 52261U 22041A   22137.50001157 -.00714514  00000+0 -85098-2 0  9994
2 52261  53.2174 247.2930 0001927  30.3586 243.3430 15.62748449  5296
STARLINK-3761           
1 52262U 22041B   22137.50001157 -.00714777  00000+0 -85167-2 0  9993
2 52262  53.2174 247.2867 0001738  34.7483 237.5396 15.62739603  5298
STARLINK-3786           
1 52263U 22041C   22137.50001157 -.00714318  00000+0 -85095-2 0  9995
2 52263  53.2174 247.2876 0001696  37.6291 235.3660 15.62743672  5281
STARLINK-3795           
1 52264U 22041D   22137.25001157 -.00714184  00000+0 -83779-2 0  9996
2 52264  53.2173 248.5158 0001528  40.3031 266.6547 15.63135071  5241
STARLINK-3740           
1 52265U 22041E   22137.50001157 -.00713607  00000+0 -84952-2 0  9998
2 52265  53.2174 247.3034 0001885  24.5889 250.5256 15.62757319  5292
STARLINK-3739           
1 52266U 22041F   22137.50001157 -.00715056  00000+0 -85123-2 0  9990
2 52266  53.2174 247.3082 0001817  31.2230 244.5977 15.62762874  5291
STARLINK-3748           
1 52267U 22041G   22137.50001157 -.00714990  00000+0 -85100-2 0  9992
2 52267  53.2174 247.3139 0001786  33.0575 243.4696 15.62767461  5295
STARLINK-3746           
1 52268U 22041H   22137.50001157 -.00714989  00000+0 -85050-2 0  9995
2 52268  53.2174 247.3291 0001908  28.8762 249.7699 15.62781333  5297
STARLINK-3791           
1 52269U 22041J   22137.50001157 -.00715232  00000+0 -85118-2 0  9993
2 52269  53.2174 247.3191 0001678  36.3276 240.9057 15.62772325  5297
STARLINK-3804           
1 52270U 22041K   22137.50001157 -.00715307  00000+0 -85088-2 0  9994
2 52270  53.2174 247.3315 0001913  28.7055 251.1463 15.62782243  5283
STARLINK-3788           
1 52271U 22041L   22137.50001157 -.00714583  00000+0 -85018-2 0  9993
2 52271  53.2175 247.3242 0001766  35.4042 242.5359 15.62776348  5299
STARLINK-3781           
1 52272U 22041M   22137.50001157 -.00715107  00000+0 -85039-2 0  9990
2 52272  53.2174 247.3352 0001653  36.4046 244.8598 15.62791270  5292
STARLINK-3782           
1 52273U 22041N   22136.91667824  .00024724  00000+0  18041-3 0  9990
2 52273  53.2153 249.9568 0002605  16.0304 325.9704 15.73152810  1307
STARLINK-3790           
1 52274U 22041P   22137.50001157 -.00715134  00000+0 -84990-2 0  9997
2 52274  53.2175 247.3392 0001904  29.2321 254.1509 15.62804886  5298
STARLINK-3784           
1 52275U 22041Q   22137.50001157 -.00715170  00000+0 -85059-2 0  9995
2 52275  53.2174 247.3320 0001777  32.1673 248.3909 15.62786709  5281
STARLINK-3778           
1 52276U 22041R   22137.50001157 -.00714969  00000+0 -84938-2 0  9996
2 52276  53.2174 247.3428 0001919  27.3791 257.4161 15.62813916  5299
STARLINK-3787           
1 52277U 22041S   22137.50001157 -.00715840  00000+0 -85114-2 0  9993
2 52277  53.2174 247.3357 0001774  31.0457 250.9248 15.62796226  5299
STARLINK-3780           
1 52278U 22041T   22137.50001157 -.00715291  00000+0 -84971-2 0  9994
2 52278  53.2175 247.3480 0001631  36.6764 248.8245 15.62818838  5299
STARLINK-3686           
1 52279U 22041U   22137.25001157 -.00714076  00000+0 -83611-2 0  9997
2 52279  53.2174 248.5555 0001515  39.3305 275.8553 15.63181812  5251
STARLINK-3764           
1 52280U 22041V   22137.50001157 -.00715470  00000+0 -84940-2 0  9992
2 52280  53.2175 247.3636 0001898  28.0807 259.5375 15.62832843  5298
STARLINK-3779           
1 52281U 22041W   22137.50001157 -.00714686  00000+0 -84927-2 0  9996
2 52281  53.2175 247.3429 0001561  42.3590 241.7302 15.62809160  5293
STARLINK-3783           
1 52282U 22041X   22137.50001157  .00023899  00000+0  17421-3 0  9990
2 52282  53.2145 247.0521 0002686  14.3591  41.4777 15.73198892  5296
STARLINK-3789           
1 52283U 22041Y   22137.50001157 -.00714924  00000+0 -84910-2 0  9995
2 52283  53.2175 247.3536 0001598  40.3382 245.8686 15.62823147  5292
STARLINK-3561           
1 52284U 22041Z   22137.50001157 -.00002192  00000+0 -11183-4 0  9997
2 52284  53.2143 247.0484 0002842  19.3404  37.7801 15.73203584  5297
STARLINK-3775           
1 52285U 22041AA  22137.50001157 -.00715562  00000+0 -84968-2 0  9999
2 52285  53.2175 247.3586 0001875  29.3212 257.5911 15.62828255  5292
STARLINK-3802           
1 52286U 22041AB  22137.50001157  .00029330  00000+0  21262-3 0  9998
2 52286  53.2146 247.0470 0002803  23.5690  34.6819 15.73202906  5290
STARLINK-3822           
1 52287U 22041AC  22137.50001157 -.00715157  00000+0 -84887-2 0  9991
2 52287  53.2175 247.3691 0001826  31.7254 256.5985 15.62837211  5292
STARLINK-3776           
1 52288U 22041AD  22137.50001157  .00025066  00000+0  18250-3 0  9995
2 52288  53.2147 247.0457 0002782  21.3671  37.4602 15.73195441  5295
STARLINK-3751           
1 52289U 22041AE  22136.91667824  .00045800  00000+0  32973-3 0  9995
2 52289  53.2148 249.9376 0002928  15.8884 334.9917 15.73142660  1301
STARLINK-3772           
1 52290U 22041AF  22137.50001157  .00010994  00000+0  82614-4 0  9998
2 52290  53.2141 247.0411 0003000  11.7123  48.9420 15.73209223  5289
STARLINK-3773           
1 52291U 22041AG  22137.25001157  .00107106  00000+0  76012-3 0  9997
2 52291  53.2150 248.2837 0002448  11.3443  69.6843 15.73128450  5259
STARLINK-3753           
1 52292U 22041AH  22137.50001157  .00027507  00000+0  19971-3 0  9993
2 52292  53.2146 247.0390 0002953  18.7853  43.0322 15.73203924  5295
STARLINK-3771           
1 52293U 22041AJ  22137.50001157  .00032195  00000+0  23283-3 0  9994
2 52293  53.2149 247.0454 0002874  18.7715  40.5383 15.73207055  5297
STARLINK-3777           
1 52294U 22041AK  22137.50001157  .00017640  00000+0  12982-3 0  9997
2 52294  53.2147 247.0383 0002904  21.7398  40.6358 15.73202038  5291
STARLINK-3765           
1 52295U 22041AL  22137.25001157  .00104978  00000+0  74556-3 0  9996
2 52295  53.2148 248.2787 0002916  20.0485  63.3378 15.73118976  5253
STARLINK-3766           
1 52296U 22041AM  22136.91667824  .00026424  00000+0  19233-3 0  9998
2 52296  53.2148 249.9215 0002750  14.0150 344.6128 15.73169664  1306
STARLINK-3758           
1 52297U 22041AN  22137.50001157 -.00000650  00000+0 -19383-6 0  9990
2 52297  53.2147 247.0412 0002938  18.4379  42.7503 15.73232532  5293
STARLINK-3760           
1 52298U 22041AP  22136.91667824  .00024175  00000+0  17638-3 0  9998
2 52298  53.2150 249.9199 0002880  18.8913 340.2747 15.73169984  1309
STARLINK-3759           
1 52299U 22041AQ  22137.50001157 -.00033913  00000+0 -23770-3 0  9992
2 52299  53.2151 247.0362 0002970  16.2956  47.3581 15.73239554  5295
STARLINK-3769           
1 52300U 22041AR  22137.50001157  .00017694  00000+0  13027-3 0  9995
2 52300  53.2150 247.0309 0002757  20.1608  45.8219 15.73190401  5297
STARLINK-3768           
1 52301U 22041AS  22137.50001157  .00024463  00000+0  17820-3 0  9993
2 52301  53.2148 247.0372 0002717  14.6020  48.3735 15.73199552  5283
STARLINK-3564           
1 52302U 22041AT  22137.25001157  .00097679  00000+0  69439-3 0  9998
2 52302  53.2150 248.2623 0002751  21.8563  69.2438 15.73127567  5244
STARLINK-3742           
1 52303U 22041AU  22137.50001157  .00018090  00000+0  13304-3 0  9997
2 52303  53.2147 247.0322 0003005  13.7383  51.6374 15.73196349  5290
STARLINK-3744           
1 52304U 22041AV  22137.50001157 -.00042989  00000+0 -30266-3 0  9990
2 52304  53.2148 247.0256 0002968  18.4376  49.9205 15.73252846  5297
STARLINK-3724           
1 52305U 22041AW  22137.25001157  .00102513  00000+0  72648-3 0  9991
2 52305  53.2152 248.2655 0002585  19.1221  70.7418 15.73180640  5257
STARLINK-3747           
1 52306U 22041AX  22137.25001157  .00001814  00000+0  17339-4 0  9991
2 52306  53.2148 248.2596 0002407  20.9547  71.3679 15.73222854  5251
STARLINK-3755           
1 52307U 22041AY  22137.50001157  .00024062  00000+0  17528-3 0  9999
2 52307  53.2151 247.0287 0002832  16.0132  51.1349 15.73210229  5284
STARLINK-3745           
1 52308U 22041AZ  22137.50001157  .00028937  00000+0  21004-3 0  9999
2 52308  53.2148 247.0217 0002788  18.5754  51.5596 15.73180460  5293
STARLINK-3756           
1 52309U 22041BA  22136.91667824 -.00061840  00000+0 -43854-3 0  9992
2 52309  53.2150 249.9105 0002926  11.5038 352.4565 15.73240583  1306
STARLINK-3688           
1 52310U 22041BB  22137.25001157  .00097733  00000+0  69470-3 0  9993
2 52310  53.2152 248.2545 0002713  18.7520  75.9336 15.73129922  5253
STARLINK-3750           
1 52311U 22041BC  22137.25001157  .00100878  00000+0  71580-3 0  9994
2 52311  53.2153 248.2565 0002598  15.0583  78.9969 15.73157789  5254
STARLINK-3752           
1 52312U 22041BD  22136.91667824  .00045835  00000+0  32989-3 0  9997
2 52312  53.2151 249.9038 0002691   9.1431 357.2714 15.73149367  1302
STARLINK-3749           
1 52313U 22041BE  22137.50001157 -.00007052  00000+0 -45771-4 0  9990
2 52313  53.2151 247.0164 0002659  22.0115  50.5225 15.73237900  5292
FALCON 9 DEB            
1 52314U 22041BF  22137.02995755  .00466322  10582-3  84784-3 0  9997
2 52314  53.2067 246.2101 0017096 355.7208   4.3675 16.00621988  4043
FALCON 9 DEB            
1 52315U 22041BG  22137.33941669  .00413359  84556-4  76205-3 0  9991
2 52315  53.2066 244.5841 0017155   1.3722 358.7354 16.00392158  4095
FALCON 9 DEB            
1 52316U 22041BH  22137.00327242  .00465514  10833-3  75670-3 0  9992
2 52316  53.2042 246.0340 0014179 354.2944   5.7925 16.02618579  4048
FALCON 9 DEB            
1 52317U 22041BJ  22137.30045291  .00632593  20594-3  86594-3 0  9992
2 52317  53.2060 244.3291 0013197   0.8359 359.2695 16.05467587  4098
CREW DRAGON 4           
1 52318U 22042A   22136.47574177  .00010732  00000+0  19945-3 0  9998
2 52318  51.6415 133.6290 0005216 128.1205 332.3674 15.49459369340246
